{
  "norad_id": 58861,
  "name": "STARLINK-31199",
  "history": [
    {
      "epoch": "2026-03-28T10:56:38.412960Z",
      "apogee_km": 484.075121273936,
      "perigee_km": 482.0049669361888,
      "latitude_deg": -2.417970287972583e-05,
      "longitude_deg": 152.8064302049992,
      "height_km": 482.6753479124062,
      "semi_major_axis_km": 6861.177044105062,
      "eccentricity": 0.00015086,
      "inclination_deg": 43.0018,
      "raan_deg": 142.8427,
      "arg_perigee_deg": 277.8683,
      "mean_anomaly_deg": 82.1997,
      "mean_motion_rev_day": 15.27583023
    },
    {
      "epoch": "2026-03-29T02:38:12.707520Z",
      "apogee_km": 483.7453571115939,
      "perigee_km": 482.39918785233294,
      "latitude_deg": 4.99299777414146e-05,
      "longitude_deg": -86.92306776736376,
      "height_km": 482.7563631460499,
      "semi_major_axis_km": 6861.209272481963,
      "eccentricity": 9.81e-05,
      "inclination_deg": 43.0028,
      "raan_deg": 139.1505,
      "arg_perigee_deg": 277.9045,
      "mean_anomaly_deg": 82.1696,
      "mean_motion_rev_day": 15.2757226
    },
    {
      "epoch": "2026-03-30T03:44:43.255680Z",
      "apogee_km": 483.94617828715946,
      "perigee_km": 482.23498812790695,
      "latitude_deg": 4.903955225122957e-06,
      "longitude_deg": -110.49076801012244,
      "height_km": 482.75546527748196,
      "semi_major_axis_km": 6861.227583207533,
      "eccentricity": 0.0001247,
      "inclination_deg": 43.0018,
      "raan_deg": 133.2413,
      "arg_perigee_deg": 277.515,
      "mean_anomaly_deg": 82.556,
      "mean_motion_rev_day": 15.27566145
    },
    {
      "epoch": "2026-03-30T10:01:20.313408Z",
      "apogee_km": 484.14133171127196,
      "perigee_km": 481.9738803352293,
      "latitude_deg": 4.624672170787211e-05,
      "longitude_deg": 153.62008357216067,
      "height_km": 482.54129292224565,
      "semi_major_axis_km": 6861.19460602325,
      "eccentricity": 0.00015795,
      "inclination_deg": 43.0018,
      "raan_deg": 131.7643,
      "arg_perigee_deg": 285.7052,
      "mean_anomaly_deg": 74.3626,
      "mean_motion_rev_day": 15.27577158
    },
    {
      "epoch": "2026-03-31T11:07:50.595456Z",
      "apogee_km": 483.4946735853173,
      "perigee_km": 482.6254971385433,
      "latitude_deg": -1.0281461872571248e-05,
      "longitude_deg": 130.05298358795423,
      "height_km": 482.80622219508007,
      "semi_major_axis_km": 6861.19708536193,
      "eccentricity": 6.334e-05,
      "inclination_deg": 42.9984,
      "raan_deg": 125.8546,
      "arg_perigee_deg": 273.9208,
      "mean_anomaly_deg": 86.1571,
      "mean_motion_rev_day": 15.2757633
    },
    {
      "epoch": "2026-04-01T18:30:59.188896Z",
      "apogee_km": 483.72184338392617,
      "perigee_km": 482.53072807752324,
      "latitude_deg": 4.218835497982627e-05,
      "longitude_deg": 10.593869515830253,
      "height_km": 482.67784833149847,
      "semi_major_axis_km": 6861.263285730724,
      "eccentricity": 8.68e-05,
      "inclination_deg": 42.9984,
      "raan_deg": 118.4702,
      "arg_perigee_deg": 292.1425,
      "mean_anomaly_deg": 67.9335,
      "mean_motion_rev_day": 15.27554222
    },
    {
      "epoch": "2026-04-02T18:03:19.628928Z",
      "apogee_km": 483.8445775557293,
      "perigee_km": 482.2868100961232,
      "latitude_deg": 4.838870319843342e-05,
      "longitude_deg": 11.00269729565246,
      "height_km": 482.7562531138105,
      "semi_major_axis_km": 6861.202693825926,
      "eccentricity": 0.00011352,
      "inclination_deg": 43.0005,
      "raan_deg": 112.9309,
      "arg_perigee_deg": 276.3374,
      "mean_anomaly_deg": 83.7349,
      "mean_motion_rev_day": 15.27574457
    },
    {
      "epoch": "2026-04-03T08:10:42.784608Z",
      "apogee_km": 483.64113456020004,
      "perigee_km": 482.3801928425646,
      "latitude_deg": -2.5812806451391943e-05,
      "longitude_deg": 155.25342125576285,
      "height_km": 482.697454583272,
      "semi_major_axis_km": 6861.147663701382,
      "eccentricity": 9.189e-05,
      "inclination_deg": 43.0014,
      "raan_deg": 109.6082,
      "arg_perigee_deg": 278.1757,
      "mean_anomaly_deg": 81.899,
      "mean_motion_rev_day": 15.27592835
    },
    {
      "epoch": "2026-04-04T09:17:10.834080Z",
      "apogee_km": 483.5251625429546,
      "perigee_km": 482.32379067839975,
      "latitude_deg": 1.6785508982995023e-05,
      "longitude_deg": 131.6927531082671,
      "height_km": 482.75828480800493,
      "semi_major_axis_km": 6861.061476610677,
      "eccentricity": 8.755e-05,
      "inclination_deg": 42.9997,
      "raan_deg": 103.6955,
      "arg_perigee_deg": 264.4964,
      "mean_anomaly_deg": 95.5788,
      "mean_motion_rev_day": 15.27621619
    },
    {
      "epoch": "2026-04-05T07:15:26.616960Z",
      "apogee_km": 484.1909373105573,
      "perigee_km": 482.00906394435697,
      "latitude_deg": 9.294833998939224e-06,
      "longitude_deg": 156.05726300103973,
      "height_km": 482.63604720025484,
      "semi_major_axis_km": 6861.237000627457,
      "eccentricity": 0.000159,
      "inclination_deg": 43.0014,
      "raan_deg": 98.5281,
      "arg_perigee_deg": 282.7609,
      "mean_anomaly_deg": 77.3065,
      "mean_motion_rev_day": 15.27563
    }
  ]
}